STARLINK-5784           
1 56033U 23042AZ  23103.39730123  .00089357  00000+0  67659-3 0  9992
2 56033  43.0025  74.9373 0001576 267.9581  92.1106 15.71389967  3461
STARLINK-5782           
1 56034U 23042BA  23103.39709322  .00011374  00000+0  90040-4 0  9995
2 56034  43.0027  74.9367 0001251 300.2669  59.8075 15.71361725  3462
STARLINK-5792           
1 56035U 23042BB  23103.39740682  .00094803  00000+0  71707-3 0  9996
2 56035  43.0026  74.9376 0001313 286.3873  73.6851 15.71392813  3460
STARLINK-5790           
1 56036U 23042BC  23103.39688091  .00013138  00000+0  10344-3 0  9994
2 56036  43.0026  74.9342 0001437 282.4814  77.5893 15.71363683  3128
STARLINK-5758           
1 56037U 23042BD  23103.39677731  .00015020  00000+0  11774-3 0  9994
2 56037  43.0027  74.9327 0001298 291.8274  68.2455 15.71363431  3461
STARLINK-5793           
1 56038U 23042BE  23103.39698837  .00027117  00000+0  20950-3 0  9991
2 56038  43.0026  74.9360 0001286 287.6928  72.3800 15.71362227  3129
STARLINK-5795           
1 56039U 23042BF  23103.39667058  .00076136  00000+0  57802-3 0  9994
2 56039  43.0024  74.9326 0001189 275.3352  84.7380 15.71385547  3464
STARLINK-5798           
1 56040U 23042BG  23103.33299830  .00039773  00000+0  30478-3 0  9995
2 56040  43.0027  75.3157 0001580 248.5095 111.5605 15.71395693  3111
STARLINK-5800           
1 56041U 23042BH  23103.33262730 -.00001230  00000+0 -59274-5 0  9991
2 56041  43.0029  75.3132 0001461 270.6865  89.3835 15.71387156  3118
FALCON 9 DEB            
1 56042U 23042BJ  23103.36229315  .00520169  12065-3  11025-2 0  9999
2 56042  43.0115  72.8644 0025421 132.9074 227.3942 15.97300538  3142
FALCON 9 DEB            
1 56043U 23042BK  23103.35421703  .00552787  13818-3  10998-2 0  9990
2 56043  43.0064  72.7911 0023558 137.2120 223.0597 15.98502375  3144
FALCON 9 DEB            
1 56044U 23042BL  23103.33842580  .00571106  15033-3  10533-2 0  9991
2 56044  43.0039  72.6492 0021445 127.9331 232.3489 15.99912447  3142
FALCON 9 DEB            
1 56045U 23042BM  23103.34060905  .00489923  10953-3  96197-3 0  9998
2 56045  43.0002  72.6628 0020898 130.8347 229.4347 15.98853407  3144
ONEWEB-0537             
1 56046U 23043A   23103.38932732 -.00231342  00000+0 -61051-2 0  9990
2 56046  87.4218 136.1721 0015555 192.6765 167.4101 15.39275094  2817
ONEWEB-0538             
1 56047U 23043B   23103.12829713 -.00003676  00000+0 -93735-4 0  9990
2 56047  87.4231 136.2655 0013121 200.6156 159.4571 15.39863648  2776
ONEWEB-0546             
1 56048U 23043C   23103.12611785  .00024116  00000+0  59922-3 0  9998
2 56048  87.4203 136.2602 0013062 192.4683 167.6251 15.40103692  2779
ONEWEB-0547             
1 56049U 23043D   23103.18038164  .00025695  00000+0  61977-3 0  9995
2 56049  87.4208 136.2326 0009675 184.0659 176.0520 15.41044380  2786
ONEWEB-0548             
1 56050U 23043E   23103.13244632 -.00163188  00000+0 -42984-2 0  9999
2 56050  87.4233 136.2689 0013842 202.8534 157.2107 15.39103410  2778
ONEWEB-0549             
1 56051U 23043F   23103.18313867  .00025644  00000+0  62316-3 0  9996
2 56051  87.4214 136.2373 0010817 184.3705 175.7458 15.40806122  2788
ONEWEB-0550             
1 56052U 23043G   23103.12186157  .00025172  00000+0  61788-3 0  9999
2 56052  87.4210 136.2583 0012131 185.7770 174.3348 15.40486106  2774
ONEWEB-0551             
1 56053U 23043H   23103.15555211  .00019039  00000+0  56961-3 0  9996
2 56053  87.4355 136.2905 0011162 213.8418 146.2123 15.34375529  2776
ONEWEB-0552             
1 56054U 23043J   23103.12409663  .00024834  00000+0  61340-3 0  9999
2 56054  87.4223 136.2624 0012694 189.7955 170.3055 15.40289005  2779
ONEWEB-0553             
1 56055U 23043K   23103.12693183  .00024008  00000+0  59791-3 0  9992
2 56055  87.4238 136.2662 0013214 193.3508 166.7400 15.40032339  2771
ONEWEB-0554             
1 56056U 23043L   23103.12504357  .00024460  00000+0  60590-3 0  9998
2 56056  87.4234 136.2645 0012851 191.0452 169.0523 15.40200488  2772
ONEWEB-0555             
1 56057U 23043M   23103.13275613 -.00134916  00000+0 -35246-2 0  9999
2 56057  87.4217 136.2648 0013403 204.0918 155.9712 15.39254643  2777
ONEWEB-0557             
1 56058U 23043N   23103.12470679  .00024453  00000+0  60518-3 0  9991
2 56058  87.4210 136.2608 0012762 190.4470 169.6522 15.40228858  2777
ONEWEB-0558             
1 56059U 23043P   23103.17941851  .00026034  00000+0  62618-3 0  9992
2 56059  87.4221 136.2361 0009333 184.8602 175.2565 15.41131849  2785
ONEWEB-0559             
1 56060U 23043Q   23103.18250864  .00012721  00000+0  30834-3 0  9995
2 56060  87.4212 136.2346 0010074 189.7230 170.3833 15.40884291  2784
ONEWEB-0566             
1 56061U 23043R   23103.12151580  .00025226  00000+0  61864-3 0  9996
2 56061  87.4214 136.2624 0011918 185.7060 174.4062 15.40516052  2776
ONEWEB-0568             
1 56062U 23043S   23103.14099491 -.00255874  00000+0 -70889-2 0  9993
2 56062  87.4215 136.2670 0011836 213.3101 146.7409 15.37940372  2771
ONEWEB-0574             
1 56063U 23043T   23103.11342695  .00028374  00000+0  68031-3 0  9996
2 56063  87.4185 136.2477 0009237 186.8695 173.2436 15.41224480  2772
ONEWEB-0575             
1 56064U 23043U   23103.13947002 -.00295295  00000+0 -81710-2 0  9990
2 56064  87.4232 136.2724 0012542 213.2228 146.8240 15.38120041  2774
ONEWEB-0576             
1 56065U 23043V   23103.33026674 -.00126220  00000+0 -33609-2 0  9991
2 56065  87.4254 136.2071 0010597 221.4155 138.6298 15.38676512  2807
ONEWEB-0577             
1 56066U 23043W   23103.13655635 -.00042285  00000+0 -11018-2 0  9993
2 56066  87.4244 136.2739 0013569 207.4874 152.5665 15.38995700  2774
ONEWEB-0578             
1 56067U 23043X   23103.11854815  .00025501  00000+0  62030-3 0  9994
2 56067  87.4210 136.2562 0010965 184.7963 175.3189 15.40774726  2775
ONEWEB-0579             
1 56068U 23043Y   23103.11120917  .00026574  00000+0  63319-3 0  9996
2 56068  87.4218 136.2565 0008601 190.1440 169.9643 15.41422027  2771
ONEWEB-0581             
1 56069U 23043Z   23103.13706575 -.00292943  00000+0 -80206-2 0  9999
2 56069  87.4228 136.2697 0013470 210.7309 149.3158 15.38420995  2773
ONEWEB-0609             
1 56070U 23043AA  23103.50001157 -.01221600  00000+0 -43801-1 0  9998
2 56070  87.4470 136.1492 0009149 185.3841  51.6903 15.31886535  1302
ONEWEB-0613             
1 56071U 23043AB  23103.50001157 -.01284699  00000+0 -47626-1 0  9995
2 56071  87.4445 136.1640 0013281 206.8868 256.3012 15.30412893  1306
ONEWEB-0630             
1 56072U 23043AC  23103.50001157 -.01025925  00000+0 -38356-1 0  9991
2 56072  87.4442 136.1602 0013227 203.3660 273.7752 15.29971019  1306
ONEWEB-0632             
1 56073U 23043AD  23103.50001157 -.01290599  00000+0 -48256-1 0  9993
2 56073  87.4485 136.1419 0008291 192.7803  50.1945 15.30231175  1300
ONEWEB-0633             
1 56074U 23043AE  23103.50001157 -.01309516  00000+0 -47894-1 0  9991
2 56074  87.4451 136.1389 0009051 186.7384  49.6777 15.30972215  1305
ONEWEB-0634             
1 56075U 23043AF  23103.50001157 -.01135291  00000+0 -41199-1 0  9991
2 56075  87.4444 136.1391 0009221 183.4908  51.8849 15.31277413  1300
ONEWEB-0635             
1 56076U 23043AG  23103.50001157 -.01289568  00000+0 -47788-1 0  9999
2 56076  87.4479 136.1705 0013526 201.2666 283.9074 15.30431392  1306
ONEWEB-0636             
1 56077U 23043AH  23103.50001157 -.01310834  00000+0 -49701-1 0  9998
2 56077  87.4497 136.1570 0011069 182.5913   5.1560 15.29783983  1301
ONEWEB-0637             
1 56078U 23043AJ  23103.35627123 -.00299820  00000+0 -99577-2 0  9996
2 56078  87.4369 136.2201 0012814 217.4522 142.5837 15.32416102  2804
ONEWEB-0647             
1 56079U 23043AK  23103.50001157 -.01305476  00000+0 -48354-1 0  9999
2 56079  87.4463 136.1541 0012253 184.1518 358.7880 15.30505294  1300
ONEWEB-0651             
1 56080U 23043AL  23103.50001157 -.01177080  00000+0 -43641-1 0  9993
2 56080  87.4441 136.1538 0013038 195.0185 329.8300 15.30633931  1303
ONEWEB-0718             
1 56081U 23043AM  23103.50001157 -.01293407  00000+0 -46838-1 0  9997
2 56081  87.4449 136.1503 0011377 184.2865   4.2190 15.31218035  1309
GSLV R/B                
1 56082U 23043AN  23103.14834201  .00020935  00000+0  55237-3 0  9998
2 56082  87.4167 136.2661 0022336 321.7947  38.1723 15.38096860  2776
COSMOS 2568             
1 56091U 23045A   23103.61480847  .00046188  00000+0  25870-3 0  9993
2 56091  96.4607 193.2996 0011671 231.6010 236.0330 15.79108962  2325
SL-4 R/B                
1 56092U 23045B   23103.20069410  .00115422  00000+0  57106-3 0  9993
2 56092  96.4633 192.9634 0014112 233.1292 126.8686 15.81583646  2275
STARLINK-6102           
1 56093U 23046A   23103.50001157 -.00897955  00000+0 -11541-1 0  9993
2 56093  42.9994 175.8333 0001241 276.7055 206.6018 15.60731438  1307
STARLINK-6109           
1 56094U 23046B   23103.50001157 -.00898360  00000+0 -11531-1 0  9994
2 56094  42.9991 175.8247 0001262 276.9558 209.4180 15.60766293  1300
STARLINK-6090           
1 56095U 23046C   23103.50001157 -.00897834  00000+0 -11532-1 0  9991
2 56095  42.9995 175.8312 0001267 281.8919 202.3328 15.60747527  1304
STARLINK-6089           
1 56096U 23046D   23103.50001157 -.00897653  00000+0 -11514-1 0  9991
2 56096  42.9996 175.8230 0001223 274.9180 212.3721 15.60782381  1305
STARLINK-6077           
1 56097U 23046E   23103.50001157 -.00879689  00000+0 -70696-2 0  9998
2 56097  42.9996 174.5894 0001210 269.7544 352.5576 15.72574901  1305
STARLINK-6088           
1 56098U 23046F   23103.50001157 -.00897978  00000+0 -11533-1 0  9994
2 56098  42.9992 175.8274 0001251 278.3376 207.1197 15.60749918  1305
STARLINK-6093           
1 56099U 23046G   23103.50001157 -.00897559  00000+0 -11498-1 0  9990
2 56099  42.9997 175.8194 0001223 275.6018 213.5202 15.60815209  1309
